[{"OBJECT_NAME":"SAUDISAT 5B","OBJECT_ID":"2018-102C","EPOCH":"2026-03-09T22:59:17.457216","MEAN_MOTION":15.27248504,"ECCENTRICITY":0.00120577,"INCLINATION":97.3281,"RA_OF_ASC_NODE":135.3629,"ARG_OF_PERICENTER":124.0958,"MEAN_ANOMALY":236.1427,"EPHEMERIS_TYPE":0,"CLASSIFICATION_TYPE":"U","NORAD_CAT_ID":43833,"ELEMENT_SET_NO":999,"REV_AT_EPOCH":40064,"BSTAR":0.00024926623,"MEAN_MOTION_DOT":6.596e-5,"MEAN_MOTION_DDOT":0},{"OBJECT_NAME":"STARLINK-32269","OBJECT_ID":"2024-138Y","EPOCH":"2026-03-09T22:11:43.094976","MEAN_MOTION":15.30184464,"ECCENTRICITY":0.00011838,"INCLINATION":53.1623,"RA_OF_ASC_NODE":308.5035,"ARG_OF_PERICENTER":95.9434,"MEAN_ANOMALY":264.1701,"EPHEMERIS_TYPE":0,"CLASSIFICATION_TYPE":"U","NORAD_CAT_ID":60377,"ELEMENT_SET_NO":999,"REV_AT_EPOCH":9066,"BSTAR":4.8955391e-5,"MEAN_MOTION_DOT":1.09e-5,"MEAN_MOTION_DDOT":0}]
